{
  "type": "FeatureCollection",
  "features": [
    {
      "type": "Feature",
      "properties": {
        "norad_id": 30013,
        "name": "FENGYUN 1C DEB",
        "group": "fengyun-1c-debris",
        "lat": -35.07308009463974,
        "lon": 177.93095260685328,
        "alt_km": 1034.1206364292493,
        "timestamp": "2025-12-11T08:58:27.396799+00:00",
        "meta_object_name": "FENGYUN 1C DEB",
        "meta_object_id": "1999-025MN",
        "meta_epoch": "2025-12-11T01:07:01.816320",
        "meta_mean_motion": 13.87823635,
        "meta_eccentricity": 0.0128271,
        "meta_inclination": 99.5804,
        "meta_ra_of_asc_node": 4.4053,
        "meta_arg_of_pericenter": 48.5113,
        "meta_mean_anomaly": 331.9523,
        "meta_ephemeris_type": 0,
        "meta_classification_type": "U",
        "meta_norad_cat_id": 30013,
        "meta_element_set_no": 999,
        "meta_rev_at_epoch": 95658,
        "meta_bstar": 0.00032672,
        "meta_mean_motion_dot": 3.68e-06,
        "meta_mean_motion_ddot": 0,
        "tle_line1": "1 30013U 99025MN  25345.04654880  .00000368  00000+0  32672-3 0  9995",
        "tle_line2": "2 30013  99.5804   4.4053 0128271  48.5113 331.9523 13.87823635956588"
      },
      "geometry": {
        "type": "Point",
        "coordinates": [
          177.93095260685328,
          -35.07308009463974
        ]
      }
    },
    {
      "type": "Feature",
      "properties": {
        "norad_id": 30015,
        "name": "FENGYUN 1C DEB",
        "group": "fengyun-1c-debris",
        "lat": -38.253908832131245,
        "lon": 160.80694397130037,
        "alt_km": 795.3281663058742,
        "timestamp": "2025-12-11T08:58:27.396809+00:00",
        "meta_object_name": "FENGYUN 1C DEB",
        "meta_object_id": "1999-025MQ",
        "meta_epoch": "2025-12-10T19:21:38.524032",
        "meta_mean_motion": 14.30790202,
        "meta_eccentricity": 0.00385081,
        "meta_inclination": 99.2289,
        "meta_ra_of_asc_node": 347.5703,
        "meta_arg_of_pericenter": 130.4232,
        "meta_mean_anomaly": 47.7958,
        "meta_ephemeris_type": 0,
        "meta_classification_type": "U",
        "meta_norad_cat_id": 30015,
        "meta_element_set_no": 999,
        "meta_rev_at_epoch": 98145,
        "meta_bstar": 0.00088168442,
        "meta_mean_motion_dot": 2.28e-05,
        "meta_mean_motion_ddot": 0,
        "tle_line1": "1 30015U 99025MQ  25344.80669588  .00002280  00000+0  88168-3 0  9997",
        "tle_line2": "2 30015  99.2289 347.5703 0038508 130.4232  47.7958 14.30790202981453"
      },
      "geometry": {
        "type": "Point",
        "coordinates": [
          160.80694397130037,
          -38.253908832131245
        ]
      }
    },
    {
      "type": "Feature",
      "properties": {
        "norad_id": 30016,
        "name": "FENGYUN 1C DEB",
        "group": "fengyun-1c-debris",
        "lat": 65.99384389573198,
        "lon": -162.19102758516843,
        "alt_km": 614.8052598191271,
        "timestamp": "2025-12-11T08:58:27.396820+00:00",
        "meta_object_name": "FENGYUN 1C DEB",
        "meta_object_id": "1999-025MR",
        "meta_epoch": "2025-12-11T00:28:09.988320",
        "meta_mean_motion": 14.78427949,
        "meta_eccentricity": 0.0047047,
        "meta_inclination": 98.9059,
        "meta_ra_of_asc_node": 356.802,
        "meta_arg_of_pericenter": 46.3707,
        "meta_mean_anomaly": 340.5118,
        "meta_ephemeris_type": 0,
        "meta_classification_type": "U",
        "meta_norad_cat_id": 30016,
        "meta_element_set_no": 999,
        "meta_rev_at_epoch": 99428,
        "meta_bstar": 0.0027589,
        "meta_mean_motion_dot": 0.00020476,
        "meta_mean_motion_ddot": 0,
        "tle_line1": "1 30016U 99025MR  25345.01956005  .00020476  00000+0  27589-2 0  9991",
        "tle_line2": "2 30016  98.9059 356.8020 0047047  46.3707 340.5118 14.78427949994284"
      },
      "geometry": {
        "type": "Point",
        "coordinates": [
          -162.19102758516843,
          65.99384389573198
        ]
      }
    },
    {
      "type": "Feature",
      "properties": {
        "norad_id": 30017,
        "name": "FENGYUN 1C DEB",
        "group": "fengyun-1c-debris",
        "lat": -22.149481194622975,
        "lon": 33.480435924300394,
        "alt_km": 837.1093467309038,
        "timestamp": "2025-12-11T08:58:27.396830+00:00",
        "meta_object_name": "FENGYUN 1C DEB",
        "meta_object_id": "1999-025MS",
        "meta_epoch": "2025-12-11T02:30:25.529760",
        "meta_mean_motion": 14.61190222,
        "meta_eccentricity": 0.0217397,
        "meta_inclination": 98.7545,
        "meta_ra_of_asc_node": 29.5989,
        "meta_arg_of_pericenter": 180.1101,
        "meta_mean_anomaly": 180.0087,
        "meta_ephemeris_type": 0,
        "meta_classification_type": "U",
        "meta_norad_cat_id": 30017,
        "meta_element_set_no": 999,
        "meta_rev_at_epoch": 420,
        "meta_bstar": 0.00027129,
        "meta_mean_motion_dot": 1.803e-05,
        "meta_mean_motion_ddot": 0,
        "tle_line1": "1 30017U 99025MS  25345.10446215  .00001803  00000+0  27129-3 0  9993",
        "tle_line2": "2 30017  98.7545  29.5989 0217397 180.1101 180.0087 14.61190222  4202"
      },
      "geometry": {
        "type": "Point",
        "coordinates": [
          33.480435924300394,
          -22.149481194622975
        ]
      }
    },
    {
      "type": "Feature",
      "properties": {
        "norad_id": 30018,
        "name": "FENGYUN 1C DEB",
        "group": "fengyun-1c-debris",
        "lat": -47.03736266032383,
        "lon": 77.43112777529791,
        "alt_km": 688.4646162143617,
        "timestamp": "2025-12-11T08:58:27.396840+00:00",
        "meta_object_name": "FENGYUN 1C DEB",
        "meta_object_id": "1999-025MT",
        "meta_epoch": "2025-12-11T04:26:34.672992",
        "meta_mean_motion": 14.73149235,
        "meta_eccentricity": 0.0116686,
        "meta_inclination": 98.7553,
        "meta_ra_of_asc_node": 67.7024,
        "meta_arg_of_pericenter": 200.3462,
        "meta_mean_anomaly": 190.029,
        "meta_ephemeris_type": 0,
        "meta_classification_type": "U",
        "meta_norad_cat_id": 30018,
        "meta_element_set_no": 999,
        "meta_rev_at_epoch": 414,
        "meta_bstar": 0.0013864,
        "meta_mean_motion_dot": 9.904e-05,
        "meta_mean_motion_ddot": 0,
        "tle_line1": "1 30018U 99025MT  25345.18512353  .00009904  00000+0  13864-2 0  9999",
        "tle_line2": "2 30018  98.7553  67.7024 0116686 200.3462 190.0290 14.73149235  4141"
      },
      "geometry": {
        "type": "Point",
        "coordinates": [
          77.43112777529791,
          -47.03736266032383
        ]
      }
    },
    {
      "type": "Feature",
      "properties": {
        "norad_id": 30020,
        "name": "FENGYUN 1C DEB",
        "group": "fengyun-1c-debris",
        "lat": 22.797274506395926,
        "lon": -14.533383059698705,
        "alt_km": 792.6039255294709,
        "timestamp": "2025-12-11T08:58:27.396850+00:00",
        "meta_object_name": "FENGYUN 1C DEB",
        "meta_object_id": "1999-025MV",
        "meta_epoch": "2025-12-10T18:18:20.812896",
        "meta_mean_motion": 14.04460038,
        "meta_eccentricity": 0.01839987,
        "meta_inclination": 98.8471,
        "meta_ra_of_asc_node": 348.6242,
        "meta_arg_of_pericenter": 76.0091,
        "meta_mean_anomaly": 100.3202,
        "meta_ephemeris_type": 0,
        "meta_classification_type": "U",
        "meta_norad_cat_id": 30020,
        "meta_element_set_no": 999,
        "meta_rev_at_epoch": 96630,
        "meta_bstar": 0.00082488777,
        "meta_mean_motion_dot": 1.488e-05,
        "meta_mean_motion_ddot": 0,
        "tle_line1": "1 30020U 99025MV  25344.76274089  .00001488  00000+0  82489-3 0  9995",
        "tle_line2": "2 30020  98.8471 348.6242 0183998  76.0091 100.3202 14.04460038966306"
      },
      "geometry": {
        "type": "Point",
        "coordinates": [
          -14.533383059698705,
          22.797274506395926
        ]
      }
    },
    {
      "type": "Feature",
      "properties": {
        "norad_id": 30021,
        "name": "FENGYUN 1C DEB",
        "group": "fengyun-1c-debris",
        "lat": -3.9821993020003,
        "lon": 156.31648030462534,
        "alt_km": 895.283808626762,
        "timestamp": "2025-12-11T08:58:27.396861+00:00",
        "meta_object_name": "FENGYUN 1C DEB",
        "meta_object_id": "1999-025MW",
        "meta_epoch": "2025-12-10T17:33:49.813056",
        "meta_mean_motion": 14.04889955,
        "meta_eccentricity": 0.00720197,
        "meta_inclination": 98.8353,
        "meta_ra_of_asc_node": 336.3117,
        "meta_arg_of_pericenter": 292.7618,
        "meta_mean_anomaly": 246.2422,
        "meta_ephemeris_type": 0,
        "meta_classification_type": "U",
        "meta_norad_cat_id": 30021,
        "meta_element_set_no": 999,
        "meta_rev_at_epoch": 96903,
        "meta_bstar": 0.00033124015,
        "meta_mean_motion_dot": 5.01e-06,
        "meta_mean_motion_ddot": 0,
        "tle_line1": "1 30021U 99025MW  25344.73182654  .00000501  00000+0  33124-3 0  9996",
        "tle_line2": "2 30021  98.8353 336.3117 0072019 292.7618 246.2422 14.04889955969034"
      },
      "geometry": {
        "type": "Point",
        "coordinates": [
          156.31648030462534,
          -3.9821993020003
        ]
      }
    }
  ]
}